[{"OBJECT_NAME":"ONEWEB-0064","OBJECT_ID":"2020-020K","EPOCH":"2026-03-09T22:09:59.713056","MEAN_MOTION":13.11414825,"ECCENTRICITY":0.00020093,"INCLINATION":87.8857,"RA_OF_ASC_NODE":40.8048,"ARG_OF_PERICENTER":83.4094,"MEAN_ANOMALY":276.7262,"EPHEMERIS_TYPE":0,"CLASSIFICATION_TYPE":"U","NORAD_CAT_ID":45433,"ELEMENT_SET_NO":999,"REV_AT_EPOCH":28967,"BSTAR":0.00054576266,"MEAN_MOTION_DOT":2.06e-6,"MEAN_MOTION_DDOT":0},{"OBJECT_NAME":"ECHO 2 DEB [METAL OBJ]","OBJECT_ID":"1964-004D","EPOCH":"2026-03-09T21:40:22.771776","MEAN_MOTION":13.2687025,"ECCENTRICITY":0.01739797,"INCLINATION":81.5177,"RA_OF_ASC_NODE":246.4725,"ARG_OF_PERICENTER":240.9501,"MEAN_ANOMALY":233.9749,"EPHEMERIS_TYPE":0,"CLASSIFICATION_TYPE":"U","NORAD_CAT_ID":743,"ELEMENT_SET_NO":999,"REV_AT_EPOCH":495,"BSTAR":0.00024766593,"MEAN_MOTION_DOT":1.29e-6,"MEAN_MOTION_DDOT":0}]
